{
  "type": "FeatureCollection",
  "features": [
    {
      "type": "Feature",
      "properties": {
        "norad_id": 67039,
        "name": "STARLINK-35705",
        "group": "last-30-days",
        "lat": 21.87278792266438,
        "lon": -75.38529998950966,
        "alt_km": 311.3337459099994,
        "timestamp": "2025-12-21T05:44:50.294203+00:00",
        "meta_object_name": "STARLINK-35705",
        "meta_object_id": "2025-294K",
        "meta_epoch": "2025-12-20T22:00:01.999584",
        "meta_mean_motion": 15.86863,
        "meta_eccentricity": 0.00016975,
        "meta_inclination": 43,
        "meta_ra_of_asc_node": 132.1258,
        "meta_arg_of_pericenter": 282.5677,
        "meta_mean_anomaly": 178.5992,
        "meta_ephemeris_type": 0,
        "meta_classification_type": "U",
        "meta_norad_cat_id": 67039,
        "meta_element_set_no": 999,
        "meta_rev_at_epoch": 143,
        "meta_bstar": -0.0059183223,
        "meta_mean_motion_dot": -0.01376933,
        "meta_mean_motion_ddot": 0,
        "tle_line1": "1 67039U 25294K   25354.91668981 -.01376933  00000+0 -59183-2 0  9995",
        "tle_line2": "2 67039  43.0000 132.1258 0001697 282.5677 178.5992 15.86863000  1432"
      },
      "geometry": {
        "type": "Point",
        "coordinates": [
          -75.38529998950966,
          21.87278792266438
        ]
      }
    },
    {
      "type": "Feature",
      "properties": {
        "norad_id": 67040,
        "name": "STARLINK-35786",
        "group": "last-30-days",
        "lat": 23.1481641666066,
        "lon": -77.17080830469928,
        "alt_km": 311.169530102482,
        "timestamp": "2025-12-21T05:44:50.294213+00:00",
        "meta_object_name": "STARLINK-35786",
        "meta_object_id": "2025-294L",
        "meta_epoch": "2025-12-20T22:00:01.999584",
        "meta_mean_motion": 15.8683463,
        "meta_eccentricity": 0.00016798,
        "meta_inclination": 43.0001,
        "meta_ra_of_asc_node": 132.131,
        "meta_arg_of_pericenter": 279.461,
        "meta_mean_anomaly": 179.6503,
        "meta_ephemeris_type": 0,
        "meta_classification_type": "U",
        "meta_norad_cat_id": 67040,
        "meta_element_set_no": 999,
        "meta_rev_at_epoch": 143,
        "meta_bstar": -0.0059064764,
        "meta_mean_motion_dot": -0.01372817,
        "meta_mean_motion_ddot": 0,
        "tle_line1": "1 67040U 25294L   25354.91668981 -.01372817  00000+0 -59065-2 0  9993",
        "tle_line2": "2 67040  43.0001 132.1310 0001679 279.4610 179.6503 15.86834630  1433"
      },
      "geometry": {
        "type": "Point",
        "coordinates": [
          -77.17080830469928,
          23.1481641666066
        ]
      }
    },
    {
      "type": "Feature",
      "properties": {
        "norad_id": 67041,
        "name": "STARLINK-35765",
        "group": "last-30-days",
        "lat": 20.62909524213781,
        "lon": -73.69939930078577,
        "alt_km": 311.3601133901102,
        "timestamp": "2025-12-21T05:44:50.294223+00:00",
        "meta_object_name": "STARLINK-35765",
        "meta_object_id": "2025-294M",
        "meta_epoch": "2025-12-20T22:00:01.999584",
        "meta_mean_motion": 15.86894953,
        "meta_eccentricity": 0.00016128,
        "meta_inclination": 42.9999,
        "meta_ra_of_asc_node": 132.1208,
        "meta_arg_of_pericenter": 281.1275,
        "meta_mean_anomaly": 182.011,
        "meta_ephemeris_type": 0,
        "meta_classification_type": "U",
        "meta_norad_cat_id": 67041,
        "meta_element_set_no": 999,
        "meta_rev_at_epoch": 143,
        "meta_bstar": -0.005936689,
        "meta_mean_motion_dot": -0.01382514,
        "meta_mean_motion_ddot": 0,
        "tle_line1": "1 67041U 25294M   25354.91668981 -.01382514  00000+0 -59367-2 0  9994",
        "tle_line2": "2 67041  42.9999 132.1208 0001612 281.1275 182.0110 15.86894953  1434"
      },
      "geometry": {
        "type": "Point",
        "coordinates": [
          -73.69939930078577,
          20.62909524213781
        ]
      }
    },
    {
      "type": "Feature",
      "properties": {
        "norad_id": 67042,
        "name": "STARLINK-35773",
        "group": "last-30-days",
        "lat": 19.243442606814835,
        "lon": -71.87777386889752,
        "alt_km": 311.5102079208564,
        "timestamp": "2025-12-21T05:44:50.294233+00:00",
        "meta_object_name": "STARLINK-35773",
        "meta_object_id": "2025-294N",
        "meta_epoch": "2025-12-20T22:00:01.999584",
        "meta_mean_motion": 15.86921194,
        "meta_eccentricity": 0.00016497,
        "meta_inclination": 43.0001,
        "meta_ra_of_asc_node": 132.1153,
        "meta_arg_of_pericenter": 281.8761,
        "meta_mean_anomaly": 183.439,
        "meta_ephemeris_type": 0,
        "meta_classification_type": "U",
        "meta_norad_cat_id": 67042,
        "meta_element_set_no": 999,
        "meta_rev_at_epoch": 162,
        "meta_bstar": -0.0059436448,
        "meta_mean_motion_dot": -0.01385536,
        "meta_mean_motion_ddot": 0,
        "tle_line1": "1 67042U 25294N   25354.91668981 -.01385536  00000+0 -59436-2 0  9999",
        "tle_line2": "2 67042  43.0001 132.1153 0001649 281.8761 183.4390 15.86921194  1621"
      },
      "geometry": {
        "type": "Point",
        "coordinates": [
          -71.87777386889752,
          19.243442606814835
        ]
      }
    },
    {
      "type": "Feature",
      "properties": {
        "norad_id": 67043,
        "name": "STARLINK-35901",
        "group": "last-30-days",
        "lat": 17.851900302125273,
        "lon": -70.1020658316116,
        "alt_km": 311.53598522730954,
        "timestamp": "2025-12-21T05:44:50.294245+00:00",
        "meta_object_name": "STARLINK-35901",
        "meta_object_id": "2025-294P",
        "meta_epoch": "2025-12-20T22:00:01.999584",
        "meta_mean_motion": 15.86954924,
        "meta_eccentricity": 0.00015816,
        "meta_inclination": 43,
        "meta_ra_of_asc_node": 132.11,
        "meta_arg_of_pericenter": 278.4063,
        "meta_mean_anomaly": 189.0627,
        "meta_ephemeris_type": 0,
        "meta_classification_type": "U",
        "meta_norad_cat_id": 67043,
        "meta_element_set_no": 999,
        "meta_rev_at_epoch": 162,
        "meta_bstar": -0.0059957004,
        "meta_mean_motion_dot": -0.01398093,
        "meta_mean_motion_ddot": 0,
        "tle_line1": "1 67043U 25294P   25354.91668981 -.01398093  00000+0 -59957-2 0  9990",
        "tle_line2": "2 67043  43.0000 132.1100 0001581 278.4063 189.0627 15.86954924  1627"
      },
      "geometry": {
        "type": "Point",
        "coordinates": [
          -70.1020658316116,
          17.851900302125273
        ]
      }
    },
    {
      "type": "Feature",
      "properties": {
        "norad_id": 67044,
        "name": "STARLINK-35884",
        "group": "last-30-days",
        "lat": 16.491613008575523,
        "lon": -68.411971161346,
        "alt_km": 311.69339396847863,
        "timestamp": "2025-12-21T05:44:50.294255+00:00",
        "meta_object_name": "STARLINK-35884",
        "meta_object_id": "2025-294Q",
        "meta_epoch": "2025-12-20T22:00:01.999584",
        "meta_mean_motion": 15.8698536,
        "meta_eccentricity": 0.00016399,
        "meta_inclination": 43.0002,
        "meta_ra_of_asc_node": 132.1047,
        "meta_arg_of_pericenter": 280.267,
        "meta_mean_anomaly": 189.2821,
        "meta_ephemeris_type": 0,
        "meta_classification_type": "U",
        "meta_norad_cat_id": 67044,
        "meta_element_set_no": 999,
        "meta_rev_at_epoch": 162,
        "meta_bstar": -0.0059999427,
        "meta_mean_motion_dot": -0.01400852,
        "meta_mean_motion_ddot": 0,
        "tle_line1": "1 67044U 25294Q   25354.91668981 -.01400852  00000+0 -59999-2 0  9994",
        "tle_line2": "2 67044  43.0002 132.1047 0001639 280.2670 189.2821 15.86985360  1625"
      },
      "geometry": {
        "type": "Point",
        "coordinates": [
          -68.411971161346,
          16.491613008575523
        ]
      }
    },
    {
      "type": "Feature",
      "properties": {
        "norad_id": 67045,
        "name": "STARLINK-35891",
        "group": "last-30-days",
        "lat": 14.838033749231652,
        "lon": -66.41120847582143,
        "alt_km": 311.93693761439863,
        "timestamp": "2025-12-21T05:44:50.294265+00:00",
        "meta_object_name": "STARLINK-35891",
        "meta_object_id": "2025-294R",
        "meta_epoch": "2025-12-20T22:00:01.999584",
        "meta_mean_motion": 15.87009886,
        "meta_eccentricity": 0.00016872,
        "meta_inclination": 43.0001,
        "meta_ra_of_asc_node": 132.0981,
        "meta_arg_of_pericenter": 283.0083,
        "meta_mean_anomaly": 189.06,
        "meta_ephemeris_type": 0,
        "meta_classification_type": "U",
        "meta_norad_cat_id": 67045,
        "meta_element_set_no": 999,
        "meta_rev_at_epoch": 154,
        "meta_bstar": -0.006049757,
        "meta_mean_motion_dot": -0.01412498,
        "meta_mean_motion_ddot": 0,
        "tle_line1": "1 67045U 25294R   25354.91668981 -.01412498  00000+0 -60498-2 0  9990",
        "tle_line2": "2 67045  43.0001 132.0981 0001687 283.0083 189.0600 15.87009886  1548"
      },
      "geometry": {
        "type": "Point",
        "coordinates": [
          -66.41120847582143,
          14.838033749231652
        ]
      }
    }
  ]
}